{
  "type": "FeatureCollection",
  "features": [
    {
      "type": "Feature",
      "properties": {
        "norad_id": 66912,
        "name": "1998-067XY",
        "group": "last-30-days",
        "lat": -4.299267984522908,
        "lon": 113.77673586244214,
        "alt_km": 414.03610019180815,
        "timestamp": "2025-12-17T19:34:06.802641+00:00",
        "meta_object_name": "1998-067XY",
        "meta_object_id": "1998-067XY",
        "meta_epoch": "2025-12-16T15:46:04.337760",
        "meta_mean_motion": 15.51521639,
        "meta_eccentricity": 0.00042238,
        "meta_inclination": 51.6299,
        "meta_ra_of_asc_node": 122.9476,
        "meta_arg_of_pericenter": 244.4597,
        "meta_mean_anomaly": 115.5956,
        "meta_ephemeris_type": 0,
        "meta_classification_type": "U",
        "meta_norad_cat_id": 66912,
        "meta_element_set_no": 999,
        "meta_rev_at_epoch": 221,
        "meta_bstar": 0.00074796807,
        "meta_mean_motion_dot": 0.00044864,
        "meta_mean_motion_ddot": 0,
        "tle_line1": "1 66912U 98067XY  25350.65699465  .00044864  00000+0  74797-3 0  9991",
        "tle_line2": "2 66912  51.6299 122.9476 0004223 244.4597 115.5956 15.51521639  2210"
      },
      "geometry": {
        "type": "Point",
        "coordinates": [
          113.77673586244214,
          -4.299267984522908
        ]
      }
    },
    {
      "type": "Feature",
      "properties": {
        "norad_id": 66913,
        "name": "2025-284A",
        "group": "last-30-days",
        "lat": 54.57143408933397,
        "lon": 137.09748560284234,
        "alt_km": 514.3089809084831,
        "timestamp": "2025-12-17T19:34:06.802651+00:00",
        "meta_object_name": "2025-284A",
        "meta_object_id": "2025-284A",
        "meta_epoch": "2025-12-17T08:14:16.354176",
        "meta_mean_motion": 15.16445468,
        "meta_eccentricity": 0.0020315,
        "meta_inclination": 80.4051,
        "meta_ra_of_asc_node": 123.9377,
        "meta_arg_of_pericenter": 159.5513,
        "meta_mean_anomaly": 200.6531,
        "meta_ephemeris_type": 0,
        "meta_classification_type": "U",
        "meta_norad_cat_id": 66913,
        "meta_element_set_no": 999,
        "meta_rev_at_epoch": 182,
        "meta_bstar": 0.00042018389,
        "meta_mean_motion_dot": 8.236e-05,
        "meta_mean_motion_ddot": 0,
        "tle_line1": "1 66913U 25284A   25351.34324484  .00008236  00000+0  42018-3 0  9990",
        "tle_line2": "2 66913  80.4051 123.9377 0020315 159.5513 200.6531 15.16445468  1829"
      },
      "geometry": {
        "type": "Point",
        "coordinates": [
          137.09748560284234,
          54.57143408933397
        ]
      }
    },
    {
      "type": "Feature",
      "properties": {
        "norad_id": 66914,
        "name": "2025-284B",
        "group": "last-30-days",
        "lat": 76.5626723970948,
        "lon": 168.41057541978776,
        "alt_km": 506.3992711287992,
        "timestamp": "2025-12-17T19:34:06.802663+00:00",
        "meta_object_name": "2025-284B",
        "meta_object_id": "2025-284B",
        "meta_epoch": "2025-12-16T06:51:11.417184",
        "meta_mean_motion": 15.18985981,
        "meta_eccentricity": 0.00081793,
        "meta_inclination": 80.4045,
        "meta_ra_of_asc_node": 125.2713,
        "meta_arg_of_pericenter": 234.9626,
        "meta_mean_anomaly": 125.0834,
        "meta_ephemeris_type": 0,
        "meta_classification_type": "U",
        "meta_norad_cat_id": 66914,
        "meta_element_set_no": 999,
        "meta_rev_at_epoch": 166,
        "meta_bstar": 0.00038444995,
        "meta_mean_motion_dot": 8.068e-05,
        "meta_mean_motion_ddot": 0,
        "tle_line1": "1 66914U 25284B   25350.28554881  .00008068  00000+0  38445-3 0  9991",
        "tle_line2": "2 66914  80.4045 125.2713 0008179 234.9626 125.0834 15.18985981  1668"
      },
      "geometry": {
        "type": "Point",
        "coordinates": [
          168.41057541978776,
          76.5626723970948
        ]
      }
    },
    {
      "type": "Feature",
      "properties": {
        "norad_id": 66915,
        "name": "HULIANWANG DIGUI-105",
        "group": "last-30-days",
        "lat": -44.55249226540421,
        "lon": 40.868102737109446,
        "alt_km": 879.4630732521355,
        "timestamp": "2025-12-17T19:34:06.802677+00:00",
        "meta_object_name": "HULIANWANG DIGUI-105",
        "meta_object_id": "2025-285A",
        "meta_epoch": "2025-12-17T07:55:22.843200",
        "meta_mean_motion": 14.03716961,
        "meta_eccentricity": 0.00079947,
        "meta_inclination": 50.0057,
        "meta_ra_of_asc_node": 98.5798,
        "meta_arg_of_pericenter": 298.0291,
        "meta_mean_anomaly": 61.9805,
        "meta_ephemeris_type": 0,
        "meta_classification_type": "U",
        "meta_norad_cat_id": 66915,
        "meta_element_set_no": 999,
        "meta_rev_at_epoch": 155,
        "meta_bstar": 9.5519899e-05,
        "meta_mean_motion_dot": 0,
        "meta_mean_motion_ddot": 0,
        "tle_line1": "1 66915U 25285A   25351.33012550  .00000000  00000+0  95520-4 0  9998",
        "tle_line2": "2 66915  50.0057  98.5798 0007994 298.0291  61.9805 14.03716961  1550"
      },
      "geometry": {
        "type": "Point",
        "coordinates": [
          40.868102737109446,
          -44.55249226540421
        ]
      }
    },
    {
      "type": "Feature",
      "properties": {
        "norad_id": 66916,
        "name": "HULIANWANG DIGUI-106",
        "group": "last-30-days",
        "lat": -36.83456075636513,
        "lon": 57.616530029521996,
        "alt_km": 880.188196836285,
        "timestamp": "2025-12-17T19:34:06.802687+00:00",
        "meta_object_name": "HULIANWANG DIGUI-106",
        "meta_object_id": "2025-285B",
        "meta_epoch": "2025-12-17T07:51:09.234144",
        "meta_mean_motion": 14.03701575,
        "meta_eccentricity": 0.00067813,
        "meta_inclination": 50.0055,
        "meta_ra_of_asc_node": 98.5657,
        "meta_arg_of_pericenter": 291.1797,
        "meta_mean_anomaly": 68.8383,
        "meta_ephemeris_type": 0,
        "meta_classification_type": "U",
        "meta_norad_cat_id": 66916,
        "meta_element_set_no": 999,
        "meta_rev_at_epoch": 155,
        "meta_bstar": -1.7121192e-05,
        "meta_mean_motion_dot": -1.78e-06,
        "meta_mean_motion_ddot": 0,
        "tle_line1": "1 66916U 25285B   25351.32719021 -.00000178  00000+0 -17121-4 0  9994",
        "tle_line2": "2 66916  50.0055  98.5657 0006781 291.1797  68.8383 14.03701575  1553"
      },
      "geometry": {
        "type": "Point",
        "coordinates": [
          57.616530029521996,
          -36.83456075636513
        ]
      }
    },
    {
      "type": "Feature",
      "properties": {
        "norad_id": 66917,
        "name": "HULIANWANG DIGUI-107",
        "group": "last-30-days",
        "lat": -30.669734330661047,
        "lon": 66.69242415354927,
        "alt_km": 879.497338976762,
        "timestamp": "2025-12-17T19:34:06.802697+00:00",
        "meta_object_name": "HULIANWANG DIGUI-107",
        "meta_object_id": "2025-285C",
        "meta_epoch": "2025-12-17T07:48:21.263040",
        "meta_mean_motion": 14.03661777,
        "meta_eccentricity": 0.00074477,
        "meta_inclination": 50.0021,
        "meta_ra_of_asc_node": 98.5497,
        "meta_arg_of_pericenter": 300.6912,
        "meta_mean_anomaly": 59.3258,
        "meta_ephemeris_type": 0,
        "meta_classification_type": "U",
        "meta_norad_cat_id": 66917,
        "meta_element_set_no": 999,
        "meta_rev_at_epoch": 155,
        "meta_bstar": -1.6522526e-05,
        "meta_mean_motion_dot": -1.77e-06,
        "meta_mean_motion_ddot": 0,
        "tle_line1": "1 66917U 25285C   25351.32524610 -.00000177  00000+0 -16523-4 0  9997",
        "tle_line2": "2 66917  50.0021  98.5497 0007447 300.6912  59.3258 14.03661777  1559"
      },
      "geometry": {
        "type": "Point",
        "coordinates": [
          66.69242415354927,
          -30.669734330661047
        ]
      }
    },
    {
      "type": "Feature",
      "properties": {
        "norad_id": 66918,
        "name": "HULIANWANG DIGUI-108",
        "group": "last-30-days",
        "lat": -27.563035457707883,
        "lon": 70.55975654353686,
        "alt_km": 880.401306693534,
        "timestamp": "2025-12-17T19:34:06.802707+00:00",
        "meta_object_name": "HULIANWANG DIGUI-108",
        "meta_object_id": "2025-285D",
        "meta_epoch": "2025-12-17T07:47:01.120992",
        "meta_mean_motion": 14.03600792,
        "meta_eccentricity": 0.00065802,
        "meta_inclination": 50.0043,
        "meta_ra_of_asc_node": 98.548,
        "meta_arg_of_pericenter": 295.1283,
        "meta_mean_anomaly": 64.8939,
        "meta_ephemeris_type": 0,
        "meta_classification_type": "U",
        "meta_norad_cat_id": 66918,
        "meta_element_set_no": 999,
        "meta_rev_at_epoch": 155,
        "meta_bstar": -7.235383e-06,
        "meta_mean_motion_dot": -1.63e-06,
        "meta_mean_motion_ddot": 0,
        "tle_line1": "1 66918U 25285D   25351.32431853 -.00000163  00000+0 -72354-5 0  9994",
        "tle_line2": "2 66918  50.0043  98.5480 0006580 295.1283  64.8939 14.03600792  1559"
      },
      "geometry": {
        "type": "Point",
        "coordinates": [
          70.55975654353686,
          -27.563035457707883
        ]
      }
    }
  ]
}